GAOFEN-5 01             
1 43461U 18043A   26095.85601464  .00000604  00000+0  13445-3 0  9999
2 43461  98.4513  65.9516 0001071 348.7957  11.3218 14.60554138421138
GAOFEN-6                
1 43484U 18048A   26095.83371797  .00001245  00000+0  18485-3 0  9991
2 43484  97.7818 161.1486 0013422  55.5023 304.7453 14.76648833422716
GAOFEN-11 01            
1 43585U 18063A   26095.87095438  .00014235  00000+0  22775-3 0  9999
2 43585  97.1353 163.0431 0002855 220.5455 139.5586 15.53237005429111
ICESAT-2                
1 43613U 18070A   26095.80068811  .00003956  00000+0  14365-3 0  9991
2 43613  92.0001 271.4632 0004158  71.7776 288.3925 15.28263194421408
HYSIS                   
1 43719U 18096A   26095.80427883  .00002068  00000+0  28941-3 0  9992
2 43719  97.9890 163.1010 0001473  64.7029 295.4334 14.78633201396725
KAZSTSAT                
1 43783U 18099AB  26095.84216423  .00002429  00000+0  20129-3 0  9997
2 43783  97.4364 131.0236 0003097 278.8761  81.2112 14.99714932400462
SAUDISAT 5A             
1 43831U 18102A   26095.85132608  .00007750  00000+0  29182-3 0  9999
2 43831  97.3130 158.8411 0010618  39.1380 321.0626 15.27326431404633
SAUDISAT 5B             
1 43833U 18102C   26095.88325667  .00007432  00000+0  27741-3 0  9999
2 43833  97.3230 161.8121 0011389  40.4997 319.7088 15.27620548404758
GAOFEN-10R              
1 44622U 19066A   26095.89027218  .00002293  00000+0  28954-3 0  9995
2 44622  98.0442  48.9783 0006197  25.8141 334.3380 14.82897718351660
CARTOSAT-3              
1 44804U 19081A   26095.83897758  .00004655  00000+0  22332-3 0  9990
2 44804  97.4366 158.8427 0012885  50.7030 309.5345 15.19298055352487
GAOFEN-12 01            
1 44819U 19082A   26095.89434134  .00000669  00000+0  94192-4 0  9993
2 44819  97.8132 104.1781 0000564  87.8208 272.3069 14.80399537343398
CSG-1                   
1 44873U 19092A   26095.81508763  .00000802  00000+0  10733-3 0  9993
2 44873  97.8883 280.4625 0001279  83.4739 276.6620 14.82152854340759
NEMO-HD                 
1 46277U 20061F   26095.86059322  .00013070  00000+0  29654-3 0  9991
2 46277  97.1983 158.5969 0000939  76.1605 283.9747 15.43182651310824
SENTINEL-6A             
1 46984U 20086A   26095.86527330 -.00000054  00000+0  31760-4 0  9993
2 46984  66.0400 285.2675 0007728 270.6723  89.3407 12.80930683251060
GAOFEN-12 02            
1 48079U 21026A   26095.89773755  .00000666  00000+0  94457-4 0  9992
2 48079  97.9933  94.3796 0006225 104.3871 255.8032 14.80237581271067
PLEIADES NEO 3          
1 48268U 21034A   26094.84535568  .00000462  00000+0  65281-4 0  9990
2 48268  97.8934 170.6645 0001316  89.7304 270.4059 14.81675433266790
PLEIADES NEO 4          
1 49070U 21073E   26095.82456332 -.00000287  00000+0 -29808-4 0  9997
2 49070  97.8943 171.6263 0001168  97.4189 262.7156 14.81676023250657
