[{"OBJECT_NAME":"GAOFEN-5 01","OBJECT_ID":"2018-043A","EPOCH":"2026-04-05T20:32:39.664896","MEAN_MOTION":14.60554138,"ECCENTRICITY":0.0001071,"INCLINATION":98.4513,"RA_OF_ASC_NODE":65.9516,"ARG_OF_PERICENTER":348.7957,"MEAN_ANOMALY":11.3218,"EPHEMERIS_TYPE":0,"CLASSIFICATION_TYPE":"U","NORAD_CAT_ID":43461,"ELEMENT_SET_NO":999,"REV_AT_EPOCH":42113,"BSTAR":0.00013445,"MEAN_MOTION_DOT":6.04e-6,"MEAN_MOTION_DDOT":0},{"OBJECT_NAME":"GAOFEN-6","OBJECT_ID":"2018-048A","EPOCH":"2026-04-05T20:00:33.232608","MEAN_MOTION":14.76648833,"ECCENTRICITY":0.0013422,"INCLINATION":97.7818,"RA_OF_ASC_NODE":161.1486,"ARG_OF_PERICENTER":55.5023,"MEAN_ANOMALY":304.7453,"EPHEMERIS_TYPE":0,"CLASSIFICATION_TYPE":"U","NORAD_CAT_ID":43484,"ELEMENT_SET_NO":999,"REV_AT_EPOCH":42271,"BSTAR":0.00018485,"MEAN_MOTION_DOT":1.245e-5,"MEAN_MOTION_DDOT":0},{"OBJECT_NAME":"GAOFEN-11 01","OBJECT_ID":"2018-063A","EPOCH":"2026-04-05T20:54:10.458432","MEAN_MOTION":15.53237005,"ECCENTRICITY":0.0002855,"INCLINATION":97.1353,"RA_OF_ASC_NODE":163.0431,"ARG_OF_PERICENTER":220.5455,"MEAN_ANOMALY":139.5586,"EPHEMERIS_TYPE":0,"CLASSIFICATION_TYPE":"U","NORAD_CAT_ID":43585,"ELEMENT_SET_NO":999,"REV_AT_EPOCH":42911,"BSTAR":0.00022775,"MEAN_MOTION_DOT":0.00014235,"MEAN_MOTION_DDOT":0},{"OBJECT_NAME":"ICESAT-2","OBJECT_ID":"2018-070A","EPOCH":"2026-04-05T19:12:59.452704","MEAN_MOTION":15.28263194,"ECCENTRICITY":0.0004158,"INCLINATION":92.0001,"RA_OF_ASC_NODE":271.4632,"ARG_OF_PERICENTER":71.7776,"MEAN_ANOMALY":288.3925,"EPHEMERIS_TYPE":0,"CLASSIFICATION_TYPE":"U","NORAD_CAT_ID":43613,"ELEMENT_SET_NO":999,"REV_AT_EPOCH":42140,"BSTAR":0.00014365,"MEAN_MOTION_DOT":3.956e-5,"MEAN_MOTION_DDOT":0},{"OBJECT_NAME":"HYSIS","OBJECT_ID":"2018-096A","EPOCH":"2026-04-05T19:18:09.690912","MEAN_MOTION":14.78633201,"ECCENTRICITY":0.0001473,"INCLINATION":97.989,"RA_OF_ASC_NODE":163.101,"ARG_OF_PERICENTER":64.7029,"MEAN_ANOMALY":295.4334,"EPHEMERIS_TYPE":0,"CLASSIFICATION_TYPE":"U","NORAD_CAT_ID":43719,"ELEMENT_SET_NO":999,"REV_AT_EPOCH":39672,"BSTAR":0.00028941,"MEAN_MOTION_DOT":2.068e-5,"MEAN_MOTION_DDOT":0},{"OBJECT_NAME":"KAZSTSAT","OBJECT_ID":"2018-099AB","EPOCH":"2026-04-05T20:12:42.989472","MEAN_MOTION":14.99714932,"ECCENTRICITY":0.0003097,"INCLINATION":97.4364,"RA_OF_ASC_NODE":131.0236,"ARG_OF_PERICENTER":278.8761,"MEAN_ANOMALY":81.2112,"EPHEMERIS_TYPE":0,"CLASSIFICATION_TYPE":"U","NORAD_CAT_ID":43783,"ELEMENT_SET_NO":999,"REV_AT_EPOCH":40046,"BSTAR":0.00020129,"MEAN_MOTION_DOT":2.429e-5,"MEAN_MOTION_DDOT":0},{"OBJECT_NAME":"SAUDISAT 5A","OBJECT_ID":"2018-102A","EPOCH":"2026-04-05T20:25:54.573312","MEAN_MOTION":15.27326431,"ECCENTRICITY":0.0010618,"INCLINATION":97.313,"RA_OF_ASC_NODE":158.8411,"ARG_OF_PERICENTER":39.138,"MEAN_ANOMALY":321.0626,"EPHEMERIS_TYPE":0,"CLASSIFICATION_TYPE":"U","NORAD_CAT_ID":43831,"ELEMENT_SET_NO":999,"REV_AT_EPOCH":40463,"BSTAR":0.00029182,"MEAN_MOTION_DOT":7.75e-5,"MEAN_MOTION_DDOT":0},{"OBJECT_NAME":"SAUDISAT 5B","OBJECT_ID":"2018-102C","EPOCH":"2026-04-05T21:11:53.376288","MEAN_MOTION":15.27620548,"ECCENTRICITY":0.0011389,"INCLINATION":97.323,"RA_OF_ASC_NODE":161.8121,"ARG_OF_PERICENTER":40.4997,"MEAN_ANOMALY":319.7088,"EPHEMERIS_TYPE":0,"CLASSIFICATION_TYPE":"U","NORAD_CAT_ID":43833,"ELEMENT_SET_NO":999,"REV_AT_EPOCH":40475,"BSTAR":0.00027741,"MEAN_MOTION_DOT":7.432e-5,"MEAN_MOTION_DDOT":0},{"OBJECT_NAME":"GAOFEN-10R","OBJECT_ID":"2019-066A","EPOCH":"2026-04-05T21:21:59.516352","MEAN_MOTION":14.82897718,"ECCENTRICITY":0.0006197,"INCLINATION":98.0442,"RA_OF_ASC_NODE":48.9783,"ARG_OF_PERICENTER":25.8141,"MEAN_ANOMALY":334.338,"EPHEMERIS_TYPE":0,"CLASSIFICATION_TYPE":"U","NORAD_CAT_ID":44622,"ELEMENT_SET_NO":999,"REV_AT_EPOCH":35166,"BSTAR":0.00028954,"MEAN_MOTION_DOT":2.293e-5,"MEAN_MOTION_DDOT":0},{"OBJECT_NAME":"CARTOSAT-3","OBJECT_ID":"2019-081A","EPOCH":"2026-04-05T20:08:07.662912","MEAN_MOTION":15.19298055,"ECCENTRICITY":0.0012885,"INCLINATION":97.4366,"RA_OF_ASC_NODE":158.8427,"ARG_OF_PERICENTER":50.703,"MEAN_ANOMALY":309.5345,"EPHEMERIS_TYPE":0,"CLASSIFICATION_TYPE":"U","NORAD_CAT_ID":44804,"ELEMENT_SET_NO":999,"REV_AT_EPOCH":35248,"BSTAR":0.00022332,"MEAN_MOTION_DOT":4.655e-5,"MEAN_MOTION_DDOT":0},{"OBJECT_NAME":"GAOFEN-12 01","OBJECT_ID":"2019-082A","EPOCH":"2026-04-05T21:27:51.091776","MEAN_MOTION":14.80399537,"ECCENTRICITY":5.64e-5,"INCLINATION":97.8132,"RA_OF_ASC_NODE":104.1781,"ARG_OF_PERICENTER":87.8208,"MEAN_ANOMALY":272.3069,"EPHEMERIS_TYPE":0,"CLASSIFICATION_TYPE":"U","NORAD_CAT_ID":44819,"ELEMENT_SET_NO":999,"REV_AT_EPOCH":34339,"BSTAR":9.4192e-5,"MEAN_MOTION_DOT":6.69e-6,"MEAN_MOTION_DDOT":0},{"OBJECT_NAME":"CSG-1","OBJECT_ID":"2019-092A","EPOCH":"2026-04-05T19:33:43.571232","MEAN_MOTION":14.82152854,"ECCENTRICITY":0.0001279,"INCLINATION":97.8883,"RA_OF_ASC_NODE":280.4625,"ARG_OF_PERICENTER":83.4739,"MEAN_ANOMALY":276.662,"EPHEMERIS_TYPE":0,"CLASSIFICATION_TYPE":"U","NORAD_CAT_ID":44873,"ELEMENT_SET_NO":999,"REV_AT_EPOCH":34075,"BSTAR":0.00010733,"MEAN_MOTION_DOT":8.02e-6,"MEAN_MOTION_DDOT":0},{"OBJECT_NAME":"NEMO-HD","OBJECT_ID":"2020-061F","EPOCH":"2026-04-05T20:39:15.254208","MEAN_MOTION":15.43182651,"ECCENTRICITY":9.39e-5,"INCLINATION":97.1983,"RA_OF_ASC_NODE":158.5969,"ARG_OF_PERICENTER":76.1605,"MEAN_ANOMALY":283.9747,"EPHEMERIS_TYPE":0,"CLASSIFICATION_TYPE":"U","NORAD_CAT_ID":46277,"ELEMENT_SET_NO":999,"REV_AT_EPOCH":31082,"BSTAR":0.00029654,"MEAN_MOTION_DOT":0.0001307,"MEAN_MOTION_DDOT":0},{"OBJECT_NAME":"SENTINEL-6A","OBJECT_ID":"2020-086A","EPOCH":"2026-04-05T20:45:59.613120","MEAN_MOTION":12.80930683,"ECCENTRICITY":0.0007728,"INCLINATION":66.04,"RA_OF_ASC_NODE":285.2675,"ARG_OF_PERICENTER":270.6723,"MEAN_ANOMALY":89.3407,"EPHEMERIS_TYPE":0,"CLASSIFICATION_TYPE":"U","NORAD_CAT_ID":46984,"ELEMENT_SET_NO":999,"REV_AT_EPOCH":25106,"BSTAR":3.176e-5,"MEAN_MOTION_DOT":-5.4e-7,"MEAN_MOTION_DDOT":0},{"OBJECT_NAME":"GAOFEN-12 02","OBJECT_ID":"2021-026A","EPOCH":"2026-04-05T21:32:44.524320","MEAN_MOTION":14.80237581,"ECCENTRICITY":0.0006225,"INCLINATION":97.9933,"RA_OF_ASC_NODE":94.3796,"ARG_OF_PERICENTER":104.3871,"MEAN_ANOMALY":255.8032,"EPHEMERIS_TYPE":0,"CLASSIFICATION_TYPE":"U","NORAD_CAT_ID":48079,"ELEMENT_SET_NO":999,"REV_AT_EPOCH":27106,"BSTAR":9.4457e-5,"MEAN_MOTION_DOT":6.66e-6,"MEAN_MOTION_DDOT":0},{"OBJECT_NAME":"PLEIADES NEO 3","OBJECT_ID":"2021-034A","EPOCH":"2026-04-04T20:17:18.730752","MEAN_MOTION":14.81675433,"ECCENTRICITY":0.00013165,"INCLINATION":97.8934,"RA_OF_ASC_NODE":170.6645,"ARG_OF_PERICENTER":89.7304,"MEAN_ANOMALY":270.4059,"EPHEMERIS_TYPE":0,"CLASSIFICATION_TYPE":"U","NORAD_CAT_ID":48268,"ELEMENT_SET_NO":999,"REV_AT_EPOCH":26679,"BSTAR":6.5280597e-5,"MEAN_MOTION_DOT":4.62e-6,"MEAN_MOTION_DDOT":0},{"OBJECT_NAME":"PLEIADES NEO 4","OBJECT_ID":"2021-073E","EPOCH":"2026-04-05T19:47:22.270848","MEAN_MOTION":14.81676023,"ECCENTRICITY":0.0001168,"INCLINATION":97.8943,"RA_OF_ASC_NODE":171.6263,"ARG_OF_PERICENTER":97.4189,"MEAN_ANOMALY":262.7156,"EPHEMERIS_TYPE":0,"CLASSIFICATION_TYPE":"U","NORAD_CAT_ID":49070,"ELEMENT_SET_NO":999,"REV_AT_EPOCH":25065,"BSTAR":-2.9808e-5,"MEAN_MOTION_DOT":-2.87e-6,"MEAN_MOTION_DDOT":0}]
